[{"OBJECT_NAME":"STARLINK-34876","OBJECT_ID":"2025-191X","EPOCH":"2026-03-09T15:01:24.415392","MEAN_MOTION":15.05648669,"ECCENTRICITY":0.0002783,"INCLINATION":97.6021,"RA_OF_ASC_NODE":301.5241,"ARG_OF_PERICENTER":61.0245,"MEAN_ANOMALY":299.126,"EPHEMERIS_TYPE":0,"CLASSIFICATION_TYPE":"U","NORAD_CAT_ID":65400,"ELEMENT_SET_NO":999,"REV_AT_EPOCH":3026,"BSTAR":0.00011956,"MEAN_MOTION_DOT":1.665e-5,"MEAN_MOTION_DDOT":0},{"OBJECT_NAME":"PSLV DEB","OBJECT_ID":"2001-049CG","EPOCH":"2026-03-09T17:57:10.653408","MEAN_MOTION":15.10779615,"ECCENTRICITY":0.00259315,"INCLINATION":97.9011,"RA_OF_ASC_NODE":146.9612,"ARG_OF_PERICENTER":307.1678,"MEAN_ANOMALY":170.9563,"EPHEMERIS_TYPE":0,"CLASSIFICATION_TYPE":"U","NORAD_CAT_ID":27136,"ELEMENT_SET_NO":999,"REV_AT_EPOCH":32989,"BSTAR":0.00047952924,"MEAN_MOTION_DOT":7.956e-5,"MEAN_MOTION_DDOT":0}]
